[{"OBJECT_NAME":"STARLINK-35770","OBJECT_ID":"2025-288U","EPOCH":"2026-03-09T22:37:22.412064","MEAN_MOTION":15.27582343,"ECCENTRICITY":0.00015391,"INCLINATION":43.0014,"RA_OF_ASC_NODE":22.235,"ARG_OF_PERICENTER":249.4782,"MEAN_ANOMALY":110.5905,"EPHEMERIS_TYPE":0,"CLASSIFICATION_TYPE":"U","NORAD_CAT_ID":66977,"ELEMENT_SET_NO":999,"REV_AT_EPOCH":1532,"BSTAR":0.00085927539,"MEAN_MOTION_DOT":0.0002346,"MEAN_MOTION_DDOT":0},{"OBJECT_NAME":"OBJECT BD","OBJECT_ID":"2025-313BD","EPOCH":"2026-03-09T15:06:44.992224","MEAN_MOTION":15.3000236,"ECCENTRICITY":0.00072867,"INCLINATION":97.397,"RA_OF_ASC_NODE":145.285,"ARG_OF_PERICENTER":333.4514,"MEAN_ANOMALY":26.6352,"EPHEMERIS_TYPE":0,"CLASSIFICATION_TYPE":"U","NORAD_CAT_ID":67299,"ELEMENT_SET_NO":999,"REV_AT_EPOCH":1083,"BSTAR":0.0027633805,"MEAN_MOTION_DOT":0.0008101,"MEAN_MOTION_DDOT":0}]
